start=new Date('2022-03-12T00:00:00.000Z').valueOf();
sats=[{"OBJECT_ID":"2021-005AX","MEAN_ANOMALY":"299.3670","OBJECT_NAME":"STARLINK-2115","FILE":"3355378","PERIOD":"95.592","TLE_LINE2":"2 47394  53.0533  95.9747 0001778  60.7496 299.3670 15.06408028 63643","BSTAR":"0.00016068000000","CENTER_NAME":"EARTH","GP_ID":"198518403","APOAPSIS":"548.420","SITE":"AFETR","RA_OF_ASC_NODE":"95.9747","REF_FRAME":"TEME","INCLINATION":"53.0533","SEMIMAJOR_AXIS":"6925.324","PERIAPSIS":"545.958","LAUNCH_DATE":"2021-01-20","MEAN_MOTION_DOT":"0.00002113","MEAN_MOTION":"15.06408028","TLE_LINE1":"1 47394U 21005AX  22070.76499549  .00002113  00000-0  16068-3 0  9990","COUNTRY_CODE":"US","TIME_SYSTEM":"UTC","ARG_OF_PERICENTER":"60.7496","NORAD_CAT_ID":"47394","DECAY_DATE":null,"EPOCH":"2022-03-11T18:21:35.610336","EPHEMERIS_TYPE":"0","MEAN_ELEMENT_THEORY":"SGP4","RCS_SIZE":"LARGE","MEAN_MOTION_DDOT":"0.0000000000000","REV_AT_EPOCH":"6364","ELEMENT_SET_NO":"999","CLASSIFICATION_TYPE":"U","ECCENTRICITY":"0.00017780","OBJECT_TYPE":"PAYLOAD"},{"MEAN_MOTION_DDOT":"0.0000000000000","REV_AT_EPOCH":"6366","RCS_SIZE":"LARGE","MEAN_ELEMENT_THEORY":"SGP4","ECCENTRICITY":"0.00020790","OBJECT_TYPE":"PAYLOAD","ELEMENT_SET_NO":"999","CLASSIFICATION_TYPE":"U","COUNTRY_CODE":"US","ARG_OF_PERICENTER":"50.6469","TIME_SYSTEM":"UTC","NORAD_CAT_ID":"47395","EPOCH":"2022-03-11T11:16:20.784864","EPHEMERIS_TYPE":"0","DECAY_DATE":null,"LAUNCH_DATE":"2021-01-20","MEAN_MOTION_DOT":"0.00009900","SEMIMAJOR_AXIS":"6925.264","PERIAPSIS":"545.689","TLE_LINE1":"1 47395U 21005AY  22070.46968501  .00009900  00000-0  68205-3 0  9998","MEAN_MOTION":"15.06427558","TLE_LINE2":"2 47395  53.0550  92.3190 0002079  50.6469 309.4704 15.06427558 63661","PERIOD":"95.590","BSTAR":"0.00068205000000","CENTER_NAME":"EARTH","GP_ID":"198483579","APOAPSIS":"548.569","OBJECT_ID":"2021-005AY","MEAN_ANOMALY":"309.4704","OBJECT_NAME":"STARLINK-2117","FILE":"3354959","RA_OF_ASC_NODE":"92.3190","REF_FRAME":"TEME","INCLINATION":"53.0550","SITE":"AFETR"},{"COUNTRY_CODE":"US","ARG_OF_PERICENTER":"61.1518","TIME_SYSTEM":"UTC","NORAD_CAT_ID":"47396","DECAY_DATE":null,"EPOCH":"2022-03-11T18:40:51.217248","EPHEMERIS_TYPE":"0","MEAN_ELEMENT_THEORY":"SGP4","RCS_SIZE":"LARGE","MEAN_MOTION_DDOT":"0.0000000000000","REV_AT_EPOCH":"6357","ELEMENT_SET_NO":"999","CLASSIFICATION_TYPE":"U","ECCENTRICITY":"0.00015580","OBJECT_TYPE":"PAYLOAD","OBJECT_ID":"2021-005AZ","MEAN_ANOMALY":"298.9627","FILE":"3355378","OBJECT_NAME":"STARLINK-2118","TLE_LINE2":"2 47396  53.0541 100.9301 0001558  61.1518 298.9627 15.06405009 63578","BSTAR":"0.00009492800000","PERIOD":"95.592","CENTER_NAME":"EARTH","GP_ID":"198519405","APOAPSIS":"548.277","SITE":"AFETR","REF_FRAME":"TEME","RA_OF_ASC_NODE":"100.9301","INCLINATION":"53.0541","PERIAPSIS":"546.119","SEMIMAJOR_AXIS":"6925.333","LAUNCH_DATE":"2021-01-20","MEAN_MOTION_DOT":"0.00001133","MEAN_MOTION":"15.06405009","TLE_LINE1":"1 47396U 21005AZ  22070.77837057  .00001133  00000-0  94928-4 0  9996"},{"OBJECT_ID":"2021-005BA","OBJECT_NAME":"STARLINK-2119","FILE":"3355378","MEAN_ANOMALY":"313.7594","GP_ID":"198518653","CENTER_NAME":"EARTH","TLE_LINE2":"2 47397  53.0524 131.8302 0001966  46.3558 313.7594 15.06428854 63129","BSTAR":"0.00104460000000","PERIOD":"95.590","APOAPSIS":"548.487","SITE":"AFETR","INCLINATION":"53.0524","REF_FRAME":"TEME","RA_OF_ASC_NODE":"131.8302","PERIAPSIS":"545.764","SEMIMAJOR_AXIS":"6925.260","MEAN_MOTION_DOT":"0.00015324","LAUNCH_DATE":"2021-01-20","TLE_LINE1":"1 47397U 21005BA  22070.57656461  .00015324  00000-0  10446-2 0  9991","MEAN_MOTION":"15.06428854","ARG_OF_PERICENTER":"46.3558","TIME_SYSTEM":"UTC","COUNTRY_CODE":"US","NORAD_CAT_ID":"47397","DECAY_DATE":null,"EPOCH":"2022-03-11T13:50:15.182304","EPHEMERIS_TYPE":"0","RCS_SIZE":"LARGE","MEAN_ELEMENT_THEORY":"SGP4","MEAN_MOTION_DDOT":"0.0000000000000","REV_AT_EPOCH":"6312","ELEMENT_SET_NO":"999","CLASSIFICATION_TYPE":"U","ECCENTRICITY":"0.00019660","OBJECT_TYPE":"PAYLOAD"},{"MEAN_MOTION":"15.06413029","TLE_LINE1":"1 47398U 21005BB  22070.81523595  .00005641  00000-0  39717-3 0  9994","MEAN_MOTION_DOT":"0.00005641","LAUNCH_DATE":"2021-01-20","SEMIMAJOR_AXIS":"6925.309","PERIAPSIS":"546.068","INCLINATION":"53.0546","REF_FRAME":"TEME","RA_OF_ASC_NODE":"100.7531","SITE":"AFETR","APOAPSIS":"548.280","GP_ID":"198518903","CENTER_NAME":"EARTH","TLE_LINE2":"2 47398  53.0546 100.7531 0001597  61.3418 298.7732 15.06413029 63578","PERIOD":"95.591","BSTAR":"0.00039717000000","OBJECT_NAME":"STARLINK-2120","FILE":"3355378","MEAN_ANOMALY":"298.7732","OBJECT_ID":"2021-005BB","OBJECT_TYPE":"PAYLOAD","ECCENTRICITY":"0.00015970","CLASSIFICATION_TYPE":"U","ELEMENT_SET_NO":"999","REV_AT_EPOCH":"6357","MEAN_MOTION_DDOT":"0.0000000000000","RCS_SIZE":"LARGE","MEAN_ELEMENT_THEORY":"SGP4","EPHEMERIS_TYPE":"0","EPOCH":"2022-03-11T19:33:56.386080","DECAY_DATE":null,"NORAD_CAT_ID":"47398","ARG_OF_PERICENTER":"61.3418","TIME_SYSTEM":"UTC","COUNTRY_CODE":"US"},{"INCLINATION":"53.0555","RA_OF_ASC_NODE":"112.4970","REF_FRAME":"TEME","SITE":"AFETR","GP_ID":"198491331","CENTER_NAME":"EARTH","PERIOD":"95.591","TLE_LINE2":"2 47399  53.0555 112.4970 0001656  56.0694 304.0452 15.06411096 63379","BSTAR":"0.00018927000000","APOAPSIS":"548.326","OBJECT_ID":"2021-005BC","FILE":"3355129","OBJECT_NAME":"STARLINK-2121","MEAN_ANOMALY":"304.0452","MEAN_MOTION":"15.06411096","TLE_LINE1":"1 47399U 21005BC  22070.43003025  .00002540  00000-0  18927-3 0  9999","MEAN_MOTION_DOT":"0.00002540","LAUNCH_DATE":"2021-01-20","SEMIMAJOR_AXIS":"6925.315","PERIAPSIS":"546.033","EPOCH":"2022-03-11T10:19:14.613600","EPHEMERIS_TYPE":"0","DECAY_DATE":null,"ARG_OF_PERICENTER":"56.0694","TIME_SYSTEM":"UTC","COUNTRY_CODE":"US","NORAD_CAT_ID":"47399","ECCENTRICITY":"0.00016560","OBJECT_TYPE":"PAYLOAD","ELEMENT_SET_NO":"999","CLASSIFICATION_TYPE":"U","MEAN_MOTION_DDOT":"0.0000000000000","REV_AT_EPOCH":"6337","MEAN_ELEMENT_THEORY":"SGP4","RCS_SIZE":"LARGE"},{"OBJECT_TYPE":"PAYLOAD","ECCENTRICITY":"0.00019660","CLASSIFICATION_TYPE":"U","ELEMENT_SET_NO":"999","REV_AT_EPOCH":"6366","MEAN_MOTION_DDOT":"0.0000000000000","MEAN_ELEMENT_THEORY":"SGP4","RCS_SIZE":"LARGE","EPHEMERIS_TYPE":"0","EPOCH":"2022-03-11T11:30:55.498464","DECAY_DATE":null,"NORAD_CAT_ID":"47400","TIME_SYSTEM":"UTC","ARG_OF_PERICENTER":"58.0397","COUNTRY_CODE":"US","MEAN_MOTION":"15.06419838","TLE_LINE1":"1 47400U 21005BD  22070.47980901  .00009266  00000-0  63982-3 0  9996","MEAN_MOTION_DOT":"0.00009266","LAUNCH_DATE":"2021-01-20","PERIAPSIS":"545.791","SEMIMAJOR_AXIS":"6925.288","INCLINATION":"53.0538","REF_FRAME":"TEME","RA_OF_ASC_NODE":"92.2548","SITE":"AFETR","APOAPSIS":"548.514","GP_ID":"198519905","CENTER_NAME":"EARTH","TLE_LINE2":"2 47400  53.0538  92.2548 0001966  58.0397 302.0783 15.06419838 63664","PERIOD":"95.591","BSTAR":"0.00063982000000","FILE":"3355378","OBJECT_NAME":"STARLINK-2122","MEAN_ANOMALY":"302.0783","OBJECT_ID":"2021-005BD"},{"OBJECT_ID":"2021-005BE","MEAN_ANOMALY":"312.0444","OBJECT_NAME":"STARLINK-2123","FILE":"3354959","PERIOD":"95.592","TLE_LINE2":"2 47401  53.0548 102.7903 0001759  48.0695 312.0444 15.06397544 63516","BSTAR":"0.00013512000000","CENTER_NAME":"EARTH","GP_ID":"198482578","APOAPSIS":"548.439","SITE":"AFETR","REF_FRAME":"TEME","RA_OF_ASC_NODE":"102.7903","INCLINATION":"53.0548","SEMIMAJOR_AXIS":"6925.356","PERIAPSIS":"546.003","LAUNCH_DATE":"2021-01-20","MEAN_MOTION_DOT":"0.00001731","MEAN_MOTION":"15.06397544","TLE_LINE1":"1 47401U 21005BE  22070.36556424  .00001731  00000-0  13512-3 0  9997","COUNTRY_CODE":"US","TIME_SYSTEM":"UTC","ARG_OF_PERICENTER":"48.0695","NORAD_CAT_ID":"47401","DECAY_DATE":null,"EPOCH":"2022-03-11T08:46:24.750336","EPHEMERIS_TYPE":"0","MEAN_ELEMENT_THEORY":"SGP4","RCS_SIZE":"LARGE","MEAN_MOTION_DDOT":"0.0000000000000","REV_AT_EPOCH":"6351","ELEMENT_SET_NO":"999","CLASSIFICATION_TYPE":"U","ECCENTRICITY":"0.00017590","OBJECT_TYPE":"PAYLOAD"},{"INCLINATION":"53.0533","RA_OF_ASC_NODE":"100.9074","REF_FRAME":"TEME","SITE":"AFETR","APOAPSIS":"548.553","GP_ID":"198518404","CENTER_NAME":"EARTH","TLE_LINE2":"2 47402  53.0533 100.9074 0001940  49.1324 310.9832 15.06401266 63574","PERIOD":"95.592","BSTAR":"0.00008729900000","OBJECT_NAME":"STARLINK-2124","FILE":"3355378","MEAN_ANOMALY":"310.9832","OBJECT_ID":"2021-005BF","TLE_LINE1":"1 47402U 21005BF  22070.78206828  .00001019  00000-0  87299-4 0  9997","MEAN_MOTION":"15.06401266","MEAN_MOTION_DOT":"0.00001019","LAUNCH_DATE":"2021-01-20","SEMIMAJOR_AXIS":"6925.345","PERIAPSIS":"545.866","EPHEMERIS_TYPE":"0","EPOCH":"2022-03-11T18:46:10.699392","DECAY_DATE":null,"NORAD_CAT_ID":"47402","ARG_OF_PERICENTER":"49.1324","TIME_SYSTEM":"UTC","COUNTRY_CODE":"US","OBJECT_TYPE":"PAYLOAD","ECCENTRICITY":"0.00019400","CLASSIFICATION_TYPE":"U","ELEMENT_SET_NO":"999","REV_AT_EPOCH":"6357","MEAN_MOTION_DDOT":"0.0000000000000","MEAN_ELEMENT_THEORY":"SGP4","RCS_SIZE":"LARGE"},{"INCLINATION":"53.0532","REF_FRAME":"TEME","RA_OF_ASC_NODE":"100.8843","SITE":"AFETR","APOAPSIS":"548.367","CENTER_NAME":"EARTH","GP_ID":"198519655","TLE_LINE2":"2 47403  53.0532 100.8843 0001657  59.0117 301.1035 15.06397977 63572","BSTAR":"0.00022940000000","PERIOD":"95.592","FILE":"3355378","OBJECT_NAME":"STARLINK-2127","MEAN_ANOMALY":"301.1035","OBJECT_ID":"2021-005BG","MEAN_MOTION":"15.06397977","TLE_LINE1":"1 47403U 21005BG  22070.78944005  .00003137  00000-0  22940-3 0  9998","MEAN_MOTION_DOT":"0.00003137","LAUNCH_DATE":"2021-01-20","SEMIMAJOR_AXIS":"6925.355","PERIAPSIS":"546.072","EPHEMERIS_TYPE":"0","EPOCH":"2022-03-11T18:56:47.620320","DECAY_DATE":null,"NORAD_CAT_ID":"47403","ARG_OF_PERICENTER":"59.0117","TIME_SYSTEM":"UTC","COUNTRY_CODE":"US","OBJECT_TYPE":"PAYLOAD","ECCENTRICITY":"0.00016570","CLASSIFICATION_TYPE":"U","ELEMENT_SET_NO":"999","REV_AT_EPOCH":"6357","MEAN_MOTION_DDOT":"0.0000000000000","RCS_SIZE":"LARGE","MEAN_ELEMENT_THEORY":"SGP4"}];
